{
    "links": {
        "self": "http://www.neowsapp.com/rest/v1/neo/3455741?api_key=iIulBulltgU6a56xZRHN4H3l9WmuAYTsLGpBGhQ2"
    },
    "id": "3455741",
    "neo_reference_id": "3455741",
    "name": "(2009 FF44)",
    "designation": "2009 FF44",
    "nasa_jpl_url": "http://ssd.jpl.nasa.gov/sbdb.cgi?sstr=3455741",
    "absolute_magnitude_h": 23.5,
    "estimated_diameter": {
        "kilometers": {
            "estimated_diameter_min": 0.0530340723,
            "estimated_diameter_max": 0.1185877909
        },
        "meters": {
            "estimated_diameter_min": 53.0340723319,
            "estimated_diameter_max": 118.5877908577
        },
        "miles": {
            "estimated_diameter_min": 0.0329538346,
            "estimated_diameter_max": 0.0736870142
        },
        "feet": {
            "estimated_diameter_min": 173.9963058693,
            "estimated_diameter_max": 389.0675677576
        }
    },
    "is_potentially_hazardous_asteroid": false,
    "close_approach_data": [
        {
            "close_approach_date": "2009-04-04",
            "close_approach_date_full": "2009-Apr-04 09:14",
            "epoch_date_close_approach": 1238836440000,
            "relative_velocity": {
                "kilometers_per_second": "3.043962867",
                "kilometers_per_hour": "10958.2663213592",
                "miles_per_hour": "6809.0405372912"
            },
            "miss_distance": {
                "astronomical": "0.2251249751",
                "lunar": "87.5736153139",
                "kilometers": "33678216.758763037",
                "miles": "20926673.5111504306"
            },
            "orbiting_body": "Earth"
        }
    ],
    "orbital_data": {
        "orbit_id": "10",
        "orbit_determination_date": "2017-04-06 09:00:49",
        "first_observation_date": "2009-03-29",
        "last_observation_date": "2009-04-27",
        "data_arc_in_days": 29,
        "observations_used": 30,
        "orbit_uncertainty": "7",
        "minimum_orbit_intersection": ".220242",
        "jupiter_tisserand_invariant": "3.396",
        "epoch_osculation": "2459000.5",
        "eccentricity": ".4804182072142391",
        "semi_major_axis": "2.345445716344424",
        "inclination": "1.882111644135138",
        "ascending_node_longitude": "63.25517572461669",
        "orbital_period": "1312.008068425767",
        "perihelion_distance": "1.218650890179919",
        "perihelion_argument": "128.8578794687571",
        "aphelion_distance": "3.472240542508929",
        "perihelion_time": "2458864.613377811508",
        "mean_anomaly": "37.2857341087494",
        "mean_motion": ".2743885564910829",
        "equinox": "J2000",
        "orbit_class": {
            "orbit_class_type": "AMO",
            "orbit_class_description": "Near-Earth asteroid orbits similar to that of 1221 Amor",
            "orbit_class_range": "1.017 AU < q (perihelion) < 1.3 AU"
        }
    },
    "is_sentry_object": false
}